{"fetched_at":"2026-07-14T17:40:32.114Z","source":"https://celestrak.org/NORAD/elements/gp.php?GROUP=stations&FORMAT=JSON","constellation":"crewed-vehicles","records":[{"OBJECT_NAME":"CREW DRAGON 12","OBJECT_ID":"2026-031A","EPOCH":"2026-07-14T03:41:05.800704","CLASSIFICATION_TYPE":"U","MEAN_MOTION":15.49005057,"ECCENTRICITY":0.0006704,"INCLINATION":51.6308,"RA_OF_ASC_NODE":166.6375,"ARG_OF_PERICENTER":293.6864,"MEAN_ANOMALY":66.3421,"EPHEMERIS_TYPE":0,"NORAD_CAT_ID":67796,"ELEMENT_SET_NO":999,"REV_AT_EPOCH":57577,"BSTAR":0.000081426,"MEAN_MOTION_DOT":0.00004039,"MEAN_MOTION_DDOT":0},{"OBJECT_NAME":"SHENZHOU-23 (SZ-23)","OBJECT_ID":"2026-113A","EPOCH":"2026-07-13T13:09:41.370336","CLASSIFICATION_TYPE":"U","MEAN_MOTION":15.58055023,"ECCENTRICITY":0.00023088,"INCLINATION":41.4687,"RA_OF_ASC_NODE":161.8154,"ARG_OF_PERICENTER":295.5855,"MEAN_ANOMALY":64.4744,"EPHEMERIS_TYPE":0,"NORAD_CAT_ID":69180,"ELEMENT_SET_NO":999,"REV_AT_EPOCH":29605,"BSTAR":0.000014285014,"MEAN_MOTION_DOT":0.00000774,"MEAN_MOTION_DDOT":0}]}
