CREW DRAGON 12          
1 67796U 26031A   26195.15353936  .00004039  00000+0  81426-4 0  9995
2 67796  51.6308 166.6375 0006704 293.6864  66.3421 15.49005057575778
SHENZHOU-23 (SZ-23)     
1 69180U 26113A   26194.54839549  .00000774  00000+0  14285-4 0  9997
2 69180  41.4687 161.8154 0002308 295.5855  64.4744 15.58055023296059
